full_name,a,e,i,om,w,q,ad,per_y,data_arc,condition_code,n_obs_used,n_del_obs_used,n_dop_obs_used,H
"       (2011 QP25)",3.066336720798609,.2450390258875693,10.37173392480185,351.7443255662435,307.4450306193537,2.314964557690835,3.817708883906385,5.36955095639738,2684,2,41,,,17.2
"       (2011 SV129)",3.064447269481049,.3259880683779326,16.58880221393132,30.19618915643675,267.5118309919804,2.065474023456892,4.063420515505205,5.36458871170691,5875,0,39,,,17.3
"       (2011 UC59)",3.196239034095124,.3120015367437078,25.88575855585864,23.48734888272024,260.0616310750262,2.199007543657221,4.193470524533027,5.71435318027556,2829,1,37,,,16.8
"       (2011 US105)",3.087260149347945,.09373270797769857,15.75920540323926,35.63969706872499,327.06989256,2.797882895317928,3.376637403377962,5.42460403694954,2745,1,41,,,16.8
"       (2011 UJ146)",3.14337505365079,.1257342042257087,19.56126217827952,54.37633318457323,332.5717260825709,2.748145292697064,3.538604814604517,5.57317275792763,2751,0,34,,,16.8
"       (2011 UU182)",3.048280484228961,.1583642347113247,14.3874564294607,251.9551950785635,119.9676722682991,2.565541878158575,3.531019090299347,5.32219264827125,2819,0,86,,,16.6
"       (2011 UK239)",3.120848696655487,.1385603166466671,14.43631946846064,47.13282724894499,293.9204744628421,2.688422913040564,3.553274480270409,5.51337170608678,2383,1,44,,,16.6
"       (2011 UX241)",2.979390347348617,.1696234145785114,1.174648674072034,357.1784483777786,320.0442732982675,2.474015983269088,3.484764711428147,5.142796170793,6304,0,89,,,17.0
"       (2011 UB354)",3.175644504439669,.0899790673735168,15.04157631591941,231.4006549742585,139.7299283928326,2.889902973620354,3.461386035258985,5.65921276062519,565,4,25,,,16.4
"       (2011 UZ368)",3.19952081549057,.1493401884329875,19.58574494187677,10.42520161960701,330.7461399186428,2.721703774009943,3.677337856971197,5.72315637242753,4002,1,33,,,16.5
"       (2011 WU63)",3.062732193588425,.1428516738148318,7.193832469428936,272.2326557332581,61.83368178061472,2.625215773287747,3.500248613889103,5.36008575154265,4490,0,105,,,16.1
"       (2011 YK20)",3.181886636285201,.2083900409304094,20.68231260911797,115.1402921268873,266.0874684217799,2.518813149913805,3.844960122656596,5.67590680761674,2795,2,31,,,16.5
"       (2012 BU108)",3.102669553578367,.1853833780548438,15.49872264845958,325.3258563398991,100.7552949547065,2.527486190748095,3.677852916408638,5.46526831420843,2815,1,76,,,16.1
"       (2012 TP284)",3.14727316932004,.09478077078620051,21.20063280475318,62.20835492046373,198.5534781089787,2.848972192457158,3.445574146182921,5.58354295186297,2358,2,43,,,16.6
"       (2013 DG12)",2.873065181359143,.08250658925655883,14.76317101396675,347.0978161996559,227.9249004154843,2.636018372533424,3.110111990184863,4.86997151187205,5084,0,178,,,15.8
"       (2013 EN22)",2.982002833729747,.07396375640612431,12.20425032631717,343.8418339385227,354.4665258409919,2.761442702533387,3.202562964926106,5.14956186521133,4517,0,77,,,16.4
"       (2013 PU8)",2.86282372621742,.09284503053887616,16.83948856438343,303.5571392052807,154.081262566385,2.597024769929345,3.128622682505496,4.84395515755763,1770,2,34,,,17.4
"       (2013 PS22)",3.187473913048823,.163355989605516,14.39361587464119,302.1284392799816,185.7045224739883,2.666780957640966,3.708166868456679,5.69086339631586,2610,1,91,,,16.2
"       (2013 PT64)",3.127410157833689,.1321729598228117,22.90120194565308,150.148997931345,275.8098825724563,2.714051100692883,3.540769214974494,5.53076831153229,2162,1,46,,,16.5
"       (2013 QS18)",3.091241133616988,.1078109085230958,17.45105256647345,336.2757503739167,74.53770770730854,2.757971618537776,3.4245106486962,5.43509985970346,4975,0,81,,,16.1
"       (2013 QH57)",2.978986978800113,.1956079096294565,5.637983342638534,98.48723943954813,289.7859332153024,2.396273563063653,3.561700394536574,5.14175181015013,4971,0,47,,,16.9
"       (2013 RX41)",3.050195186643588,.08517194430805118,27.3440437445892,342.9131215898636,10.01750905500505,2.790404132078095,3.309986241209081,5.32720794224501,2736,0,61,,,15.9
"       (2013 RF77)",3.039438016125529,.06226075011571536,2.893466890731578,178.1901586736919,279.17757738884,2.850200325311332,3.228675706939726,5.29905148383738,2195,1,29,,,17.1
"       (2013 RZ77)",3.17283701949979,.1012221639978727,17.17165884907854,357.0029887440745,112.917507259189,2.851675590373461,3.49399844862612,5.6517097281671,2201,2,50,,,16.1
"       (2013 TM21)",2.912673091419959,.1103215765391535,3.810852987854889,153.0516209849099,277.0654428917342,2.59134240403134,3.234003778808579,4.97102351677201,4577,0,84,,,17.2
"       (2013 TR38)",3.173002433886281,.09035424599883199,9.763571289220575,253.5824219642271,218.0208506185389,2.886308191420027,3.459696676352535,5.65215170782581,2684,1,41,,,16.5
"       (2013 TG42)",2.875027305336205,.3555728168748598,17.35425949685279,58.97375496957578,29.17234632051467,1.852745747785673,3.897308862886737,4.87496119285685,1384,4,41,,,17.4
"       (2013 WB58)",3.033562153211074,.1281945574058889,11.24607836881614,71.9201777037314,65.20198766615307,2.644675995616925,3.422448310805223,5.28369266746082,4957,0,88,,,16.0
"       (2013 YY83)",2.882079798888149,.1336295616334131,9.031305181846891,137.531518974548,8.365659015749792,2.49694873877021,3.267210859006087,4.89290973952615,2789,1,51,,,17.0
"       (2013 YC104)",3.076258976577515,.1704723938213805,16.01772791123872,237.5218229465927,284.0245299357297,2.551841744825835,3.600676208329194,5.39563475270616,4608,0,110,,,15.6
"       (2013 YV139)",3.045130577188183,.1676433871170054,25.6153993552257,315.0022297254228,256.9850344367609,2.534634573014795,3.555626581361572,5.31394533608709,4046,1,49,,,16.2
"       (2014 AD24)",3.121066295003062,.2062186864415929,21.08139209778072,300.7599826773741,298.206096674237,2.477444103350402,3.764688486655723,5.5139483384076,1360,6,13,,,16.3
"       (2014 AA33)",2.889670890063319,.6620295559093987,20.07453488982413,104.0208895937672,86.68223471239513,.9766233539903829,4.802718426136255,4.91225356751249,181,4,179,,,19.3
"       (2014 BG6)",3.119909751258317,.1085861917893688,25.50910512953602,312.6832489707183,279.8058680814491,2.781130632642659,3.458688869873974,5.51088374555227,2779,1,50,,,16.2
"       (2014 BP31)",3.071701691282862,.5242108148017692,12.13260417793211,307.4027191810302,263.6010746801186,1.4614824448675,4.681920937698223,5.38364925119969,5999,1,160,,,17.3
"       (2014 BD58)",3.086915158174855,.2593042194662017,13.15998804535339,150.1356955512528,85.51105177190729,2.286465032525938,3.887365283823773,5.42369478984843,2693,2,60,,,16.3
"       (2014 BG60)",3.02919124655735,.6129738967509643,8.608440945812394,295.451815023474,243.8400723998199,1.17237608415118,4.88600640896352,5.27227727261964,151,5,247,,,20.1
"       (2014 CY2)",3.183465739141737,.4672668092859415,23.87229150399931,101.4409987144097,115.0245362518945,1.695937860741866,4.670993617541607,5.68013258006072,2360,0,137,,,16.8
"       (2014 DC10)",2.841100021014079,.6582140107480392,13.47249374523007,153.1290828230721,42.21193974896988,.9710481812460635,4.711151860782095,4.78892446768964,133,5,104,,,20.1
"       (2014 DZ22)",3.052442865876679,.4551221654034706,24.64222167857596,158.9538392669771,31.64763086724162,1.66320845898851,4.441677272764849,5.33309743104775,141,4,76,,,18.1
"       (2014 DE100)",3.189305967266557,.1728966867281202,27.52677426066861,146.5638266667471,50.75268959030883,2.637885532563947,3.740726401969167,5.69577048036776,1856,2,46,,,16.2
"       (2014 DE103)",3.087882838615256,.2249987529510965,15.35488115486295,333.5284867857081,301.1337276899352,2.393113050667731,3.78265262656278,5.42624530438511,8084,0,118,,,15.6
"       (2014 DS135)",3.178659596468541,.1509672770855808,14.90778071108343,5.735009849422342,262.2805124639202,2.698786012407735,3.658533180529348,5.66727431949089,1456,3,34,,,16.2
"       (2014 EJ)",2.925011756240536,.4128264415440046,29.68378229939542,229.2737940979755,266.61649801,1.717489561437376,4.132533951043695,5.00264431814857,4,9,25,,,17.731
"       (2014 ER49)",2.82178005963383,.6429772420056649,13.68478732792608,100.2714259613912,160.0942223760258,1.007439699343889,4.63612041992377,4.74015935981434,206,4,310,,,18.6
"       (2014 HE3)",3.262619726914011,.7269836436958322,6.359381384489676,22.64921400815176,287.2638252567842,.8907485498481621,5.634490903979859,5.89329103519683,202,4,161,,,19.9
"       (2014 HD7)",2.91924178541324,.1892434591586979,27.30150944962752,201.3037752202848,136.9052250979681,2.366794371821025,3.471689199005455,4.98784905862276,2305,1,61,,,16.7
"       (2014 HW23)",2.848984698859041,.1793108196438774,1.982962882198717,35.18794826120955,257.2848000902273,2.338130917353761,3.359838480364321,4.80887377169466,7791,0,99,,,16.8
"       (2014 HG95)",3.00958391868667,.07766525138618298,8.95203208590895,78.62448431004456,228.1262203720371,2.775843827074056,3.243324010299284,5.22117065795247,1434,5,28,,,17.7
"       (2014 HE171)",2.986982587035918,.08307792969356982,11.79042033806244,77.54722727931453,225.4944730822405,2.738830257674231,3.235134916397605,5.16246640552159,6780,0,113,,,16.3
"       (2014 JR15)",3.004399354087227,.3977144106517047,17.6330958947041,67.91887805632585,191.0860264696411,1.809506435614063,4.199292272560391,5.20768482275579,5437,0,72,,,15.8
"       (2014 JL25)",2.89777112278485,.6573201296896188,15.76339213747829,70.08098117909353,172.1281761999108,.99300783254508,4.80253441302462,4.93292284286047,33,2,54,7,5,23.0
"       (2014 KK4)",3.087412929658141,.3728470587064057,36.4288913249489,217.401278171724,341.1980390179198,1.936280099822976,4.238545759493306,5.425006715814,1860,2,64,,,16.1
"       (2014 KS26)",2.856898301269634,.2621174788761128,16.53931358726874,79.60571572260635,240.9842648624804,2.108055321135388,3.605741281403879,4.8289240352984,1923,2,30,,,17.9
